[{"OBJECT_NAME":"YAOGAN-43 01D","OBJECT_ID":"2024-148D","EPOCH":"2026-03-09T10:27:16.254720","MEAN_MOTION":15.28369377,"ECCENTRICITY":0.00025569,"INCLINATION":35.001,"RA_OF_ASC_NODE":61.7102,"ARG_OF_PERICENTER":326.2473,"MEAN_ANOMALY":33.808,"EPHEMERIS_TYPE":0,"CLASSIFICATION_TYPE":"U","NORAD_CAT_ID":60461,"ELEMENT_SET_NO":999,"REV_AT_EPOCH":8700,"BSTAR":0.00037765912,"MEAN_MOTION_DOT":0.00010676,"MEAN_MOTION_DDOT":0},{"OBJECT_NAME":"STARLINK-32792","OBJECT_ID":"2025-003T","EPOCH":"2026-03-09T00:24:36.687456","MEAN_MOTION":15.27590551,"ECCENTRICITY":0.00028381,"INCLINATION":43.0047,"RA_OF_ASC_NODE":292.3353,"ARG_OF_PERICENTER":267.8512,"MEAN_ANOMALY":92.2014,"EPHEMERIS_TYPE":0,"CLASSIFICATION_TYPE":"U","NORAD_CAT_ID":62504,"ELEMENT_SET_NO":999,"REV_AT_EPOCH":6645,"BSTAR":0.0012676334,"MEAN_MOTION_DOT":0.00034798,"MEAN_MOTION_DDOT":0}]
